{"type": "FeatureCollection", "features": [{"type": "Feature", "properties": {"name": "Briscoe", "voltage": ""}, "geometry": {"type": "Point", "coordinates": [8.5606498, 12.0204116]}}, {"type": "Feature", "properties": {"name": "GORON DUTSE", "voltage": ""}, "geometry": {"type": "Point", "coordinates": [8.4899039, 11.9944796]}}, {"type": "Feature", "properties": {"name": "Briscoe", "voltage": ""}, "geometry": {"type": "Point", "coordinates": [8.5608147, 12.0204511]}}, {"type": "Feature", "properties": {"name": "33/11KV BUK", "voltage": ""}, "geometry": {"type": "Point", "coordinates": [8.4342652, 11.9664492]}}, {"type": "Feature", "properties": {"name": "33/11KV BUK", "voltage": ""}, "geometry": {"type": "Point", "coordinates": [8.434247, 11.96649]}}, {"type": "Feature", "properties": {"name": "Kano Club", "voltage": ""}, "geometry": {"type": "Point", "coordinates": [8.5511052, 12.0081936]}}, {"type": "Feature", "properties": {"name": "GORON DUTSE", "voltage": ""}, "geometry": {"type": "Point", "coordinates": [8.4897625, 11.9948191]}}, {"type": "Feature", "properties": {"name": "ZARIA ROAD", "voltage": ""}, "geometry": {"type": "Point", "coordinates": [8.5510701, 11.9668298]}}, {"type": "Feature", "properties": {"name": "AKTH", "voltage": ""}, "geometry": {"type": "Point", "coordinates": [8.5490054, 11.9629071]}}, {"type": "Feature", "properties": {"name": "DANLADI NASIDI (MARIRI)", "voltage": ""}, "geometry": {"type": "Point", "coordinates": [8.6185972, 11.9404265]}}, {"type": "Feature", "properties": {"name": "NA'IBAWA", "voltage": ""}, "geometry": {"type": "Point", "coordinates": [8.549043, 11.9180812]}}, {"type": "Feature", "properties": {"name": "ZARIA ROAD INJECTION S/S", "voltage": ""}, "geometry": {"type": "Point", "coordinates": [8.551033, 11.9670254]}}, {"type": "Feature", "properties": {"name": "", "voltage": ""}, "geometry": {"type": "Point", "coordinates": [8.5270852, 12.0131793]}}, {"type": "Feature", "properties": {"name": "1/15 MVA,33/11KV JOGANA INJECTION S/S", "voltage": ""}, "geometry": {"type": "Point", "coordinates": [8.6132923, 12.0136373]}}, {"type": "Feature", "properties": {"name": "SABON GARIN DOGUWA UNMANNED", "voltage": ""}, "geometry": {"type": "Point", "coordinates": [8.6288692, 10.6988007]}}, {"type": "Feature", "properties": {"name": "Bukavu", "voltage": ""}, "geometry": {"type": "Point", "coordinates": [8.5092451, 12.0292806]}}, {"type": "Feature", "properties": {"name": "Kazaure", "voltage": ""}, "geometry": {"type": "Point", "coordinates": [8.4008947, 12.6526437]}}, {"type": "Feature", "properties": {"name": "BAGAUDA", "voltage": "330"}, "geometry": {"type": "Point", "coordinates": [8.3880419, 11.5706982]}}, {"type": "Feature", "properties": {"name": "Danbatta", "voltage": ""}, "geometry": {"type": "Point", "coordinates": [8.5130494, 12.4264893]}}, {"type": "Feature", "properties": {"name": "AGAJI METERING POINT", "voltage": ""}, "geometry": {"type": "Point", "coordinates": [8.6451685, 10.6252122]}}, {"type": "Feature", "properties": {"name": "ADO BAYERO", "voltage": ""}, "geometry": {"type": "Point", "coordinates": [8.520004, 11.9876621]}}, {"type": "Feature", "properties": {"name": "BUKAVU", "voltage": ""}, "geometry": {"type": "Point", "coordinates": [8.509715, 12.0294923]}}, {"type": "Feature", "properties": {"name": "GIDAN RADIO", "voltage": ""}, "geometry": {"type": "Point", "coordinates": [8.5317706, 11.994714]}}, {"type": "Feature", "properties": {"name": "DAN-AGUNDI", "voltage": ""}, "geometry": {"type": "Point", "coordinates": [8.5230458, 11.9809598]}}, {"type": "Feature", "properties": {"name": "BICHI TOWN", "voltage": ""}, "geometry": {"type": "Point", "coordinates": [8.2509679, 12.225369]}}, {"type": "Feature", "properties": {"name": "Ado Bayero", "voltage": ""}, "geometry": {"type": "Point", "coordinates": [8.520149, 11.9877295]}}, {"type": "Feature", "properties": {"name": "Gidan Radio", "voltage": ""}, "geometry": {"type": "Point", "coordinates": [8.5314815, 11.9944758]}}, {"type": "Feature", "properties": {"name": "Dan Agundi", "voltage": ""}, "geometry": {"type": "Point", "coordinates": [8.5229866, 11.980851]}}, {"type": "Feature", "properties": {"name": "BOKAVU", "voltage": ""}, "geometry": {"type": "Point", "coordinates": [8.5097542, 12.0295425]}}, {"type": "Feature", "properties": {"name": "MARIRI INJECTION S/S", "voltage": ""}, "geometry": {"type": "Point", "coordinates": [8.6186985, 11.9402956]}}, {"type": "Feature", "properties": {"name": "POLICE ACADEMY IJECTION S/S", "voltage": ""}, "geometry": {"type": "Point", "coordinates": [8.7984631, 11.8229682]}}, {"type": "Feature", "properties": {"name": "BUKAVO", "voltage": ""}, "geometry": {"type": "Point", "coordinates": [8.5093384, 12.0296802]}}, {"type": "Feature", "properties": {"name": "WUDIL SS/S", "voltage": ""}, "geometry": {"type": "Point", "coordinates": [8.84983, 11.8013476]}}, {"type": "Feature", "properties": {"name": "Dambatta", "voltage": ""}, "geometry": {"type": "Point", "coordinates": [8.5132555, 12.4264205]}}, {"type": "Feature", "properties": {"name": "DAN-AGUNDI", "voltage": ""}, "geometry": {"type": "Point", "coordinates": [8.522942, 11.9809338]}}, {"type": "Feature", "properties": {"name": "Briscoe", "voltage": ""}, "geometry": {"type": "Point", "coordinates": [8.5602166, 12.0197661]}}, {"type": "Feature", "properties": {"name": "DAN-AGUNDI", "voltage": ""}, "geometry": {"type": "Point", "coordinates": [8.5222428, 11.9808072]}}, {"type": "Feature", "properties": {"name": "BUKAVO", "voltage": ""}, "geometry": {"type": "Point", "coordinates": [8.5085323, 12.0293524]}}, {"type": "Feature", "properties": {"name": "DAN-AGUNDI", "voltage": ""}, "geometry": {"type": "Point", "coordinates": [8.5230577, 11.9809356]}}, {"type": "Feature", "properties": {"name": "Jibiya Unmanned", "voltage": "25000"}, "geometry": {"type": "Point", "coordinates": [7.2368696, 13.1062066]}}, {"type": "Feature", "properties": {"name": "Karaye", "voltage": "25000"}, "geometry": {"type": "Point", "coordinates": [8.0180613, 11.7760659]}}, {"type": "Feature", "properties": {"name": "Tamburawa Water works", "voltage": "15000"}, "geometry": {"type": "Point", "coordinates": [8.5145161, 11.8490274]}}, {"type": "Feature", "properties": {"name": "Dutse NIPP", "voltage": "2x7.5"}, "geometry": {"type": "Point", "coordinates": [9.3421633, 11.7006703]}}, {"type": "Feature", "properties": {"name": "Kura", "voltage": "25000"}, "geometry": {"type": "Point", "coordinates": [8.4216835, 11.7675055]}}]}